IRIDIUM 126             
1 42809U 17039G   26023.51850136  .00000222  00000+0  72322-4 0  9990
2 42809  86.3928  54.1103 0002448  95.2160 264.9315 14.34220251449210
IRIDIUM 124             
1 42810U 17039H   26023.63624551  .00000944  00000+0  27468-3 0  9996
2 42810  86.4515 350.7897 0002433  83.2961 276.8517 14.43278530454260
IRIDIUM 128             
1 42811U 17039J   26023.43947173  .00000398  00000+0  13502-3 0  9990
2 42811  86.3942  85.6875 0002135  86.6711 273.4729 14.34219627449234
IRIDIUM 121             
1 42812U 17039K   26023.46776053  .00000224  00000+0  72930-4 0  9990
2 42812  86.3927  54.1581 0002083  90.8887 269.2548 14.34220065449089
IRIDIUM 133             
1 42955U 17061A   26023.61071915  .00000274  00000+0  90939-4 0  9999
2 42955  86.3941  85.7299 0002210  93.3734 266.7714 14.34220701434055
IRIDIUM 100             
1 42956U 17061B   26023.60437655  .00000341  00000+0  11481-3 0  9995
2 42956  86.3939  85.6546 0002233  94.0449 266.1002 14.34221256434053
IRIDIUM 122             
1 42957U 17061C   26023.22382464  .00000112  00000+0  33039-4 0  9991
2 42957  86.3939  85.8137 0002362  95.5133 264.6332 14.34219238434002
IRIDIUM 129             
1 42958U 17061D   26023.59803981  .00000415  00000+0  14116-3 0  9994
2 42958  86.3944  85.7227 0002145 105.5581 254.5851 14.34216614434072
